      2.10          N: GNSS NAV DATA                        RINEX VERSION / TYPE
fic2rin                                 08/04/2023 00:18:02 PGM / RUN BY / DATE
                                                            END OF HEADER
6  23  8  3  1 59 44.0  .571179203689D-03 -.454747350886D-11  .000000000000D+00
     .300000000000D+01  .139218750000D+03  .370086844174D-08  .242966789177D+01
     .735931098461D-05  .268165138550D-02  .606290996075D-05  .515371504593D+04
     .352784000000D+06 -.726431608200D-07  .113308349279D+01  .204890966415D-07
     .989251296344D+00  .278750000000D+03 -.767933465546D+00 -.779425323336D-08
     .347514475373D-09  .100000000000D+01  .227300000000D+04  .000000000000D+00
     .240000000000D+01  .000000000000D+00  .372529029846D-08  .300000000000D+01
     .345600000000D+06  .400000000000D+01
32 23  8  3  4  0  0.0 -.533488113433D-03 -.716227077646D-11  .000000000000D+00
     .630000000000D+02 -.133218750000D+03  .429339312277D-08 -.194821593136D+00
    -.688619911671D-05  .697450328153D-02  .120736658573D-04  .515378510475D+04
     .360000000000D+06  .000000000000D+00 -.307464590156D+01  .141561031342D-06
     .960576938971D+00  .150781250000D+03 -.220596194376D+01 -.802890586473D-08
     .142863093678D-10  .100000000000D+01  .227300000000D+04  .000000000000D+00
     .240000000000D+01  .000000000000D+00  .465661287308D-09  .630000000000D+02
     .352800000000D+06  .400000000000D+01
27 23  8  3  4  0  0.0 -.151027925313D-04 -.693489710102D-11  .000000000000D+00
     .850000000000D+02  .230312500000D+02  .420124642735D-08 -.776338618945D+00
     .109523534775D-05  .115510554751D-01  .130441039801D-04  .515367247009D+04
     .360000000000D+06  .109896063805D-06  .716731287421D-01  .180676579475D-06
     .966957946251D+00  .131843750000D+03  .742022592608D+00 -.788890003292D-08
    -.760388816103D-09  .100000000000D+01  .227300000000D+04  .000000000000D+00
     .340000000000D+01  .000000000000D+00  .186264514923D-08  .850000000000D+02
     .352800000000D+06  .400000000000D+01
16 23  8  3  4  0  0.0 -.473118387163D-03  .477484718431D-11  .000000000000D+00
     .850000000000D+02 -.246562500000D+02  .517128683343D-08  .131034252617D+00
    -.111199915409D-05  .133176293457D-01  .534951686859D-05  .515362353897D+04
     .360000000000D+06 -.149011611938D-07 -.882948111270D+00  .149011611938D-06
     .964188488721D+00  .275593750000D+03  .791016583667D+00 -.853856995143D-08
    -.517521556850D-09  .100000000000D+01  .227300000000D+04  .000000000000D+00
     .240000000000D+01  .000000000000D+00 -.102445483208D-07  .850000000000D+02
     .352800000000D+06  .400000000000D+01
30 23  8  3  4  0  0.0 -.499485060573D-03  .295585778076D-11  .000000000000D+00
     .880000000000D+02  .369062500000D+02  .530664961469D-08  .253056810052D+01
     .200420618057D-05  .659556873143D-02  .930763781071D-05  .515378579330D+04
     .360000000000D+06 -.106170773506D-06 -.201146820520D+01 -.165775418282D-06
     .935253979162D+00  .189312500000D+03 -.254623999373D+01 -.824248618978D-08
     .757531554230D-09  .100000000000D+01  .227300000000D+04  .000000000000D+00
     .240000000000D+01  .000000000000D+00  .372529029846D-08  .880000000000D+02
     .352800000000D+06  .400000000000D+01
15 23  8  3  4  0  0.0  .640107318759D-04  .363797880709D-11  .000000000000D+00
     .550000000000D+02 -.121906250000D+03  .486734560162D-08 -.180852118177D+01
    -.626966357231D-05  .152073494392D-01  .954791903496D-05  .515376411819D+04
     .360000000000D+06  .290572643280D-06  .307503101913D+01  .502914190292D-07
     .933403795946D+00  .168781250000D+03  .122292077270D+01 -.807105047736D-08
    -.714315468392D-11  .100000000000D+01  .227300000000D+04  .000000000000D+00
     .240000000000D+01  .000000000000D+00 -.107102096081D-07  .550000000000D+02
     .352800000000D+06  .400000000000D+01
25 23  8  3  4  0  0.0  .459937378764D-03  .227373675443D-11  .000000000000D+00
     .590000000000D+02 -.225937500000D+02  .538129558113D-08  .172369614593D+01
    -.137835741043D-05  .110774044879D-01  .513345003128D-05  .515368791580D+04
     .360000000000D+06 -.271946191788D-06 -.984265569126D+00 -.160187482834D-06
     .952204417422D+00  .277593750000D+03  .105193013995D+01 -.844463746733D-08
    -.317870383435D-09  .100000000000D+01  .227300000000D+04  .000000000000D+00
     .240000000000D+01  .000000000000D+00  .558793544769D-08  .590000000000D+02
     .352800000000D+06  .400000000000D+01
13 23  8  3  4  0  0.0  .555302016437D-03  .477484718431D-11  .000000000000D+00
     .560000000000D+02 -.912500000000D+02  .406195491101D-08 -.119027400465D+01
    -.463239848614D-05  .727703969460D-02  .121872872114D-04  .515367644310D+04
     .360000000000D+06  .154599547386D-06 -.292684362779D+01  .111758708954D-06
     .970554082696D+00  .147312500000D+03  .920254369957D+00 -.775853745994D-08
     .153934983439D-09  .100000000000D+01  .227300000000D+04  .000000000000D+00
     .240000000000D+01  .000000000000D+00 -.111758708954D-07  .560000000000D+02
     .352800000000D+06  .400000000000D+01
19 23  8  3  4  0  0.0  .352482777089D-03  .511590769747D-11  .000000000000D+00
     .420000000000D+02  .301562500000D+02  .403445376548D-08  .127728423048D+01
     .144727528095D-05  .947873608675D-02  .122580677271D-04  .515363946152D+04
     .360000000000D+06  .219792127609D-06  .182255123909D+00 -.745058059692D-08
     .972766580981D+00  .145906250000D+03  .237561223488D+01 -.768817738630D-08
    -.573595321119D-09  .100000000000D+01  .227300000000D+04  .000000000000D+00
     .240000000000D+01  .000000000000D+00 -.153668224812D-07  .420000000000D+02
     .352800000000D+06  .400000000000D+01
11 23  8  3  4  0  0.0 -.303694512695D-03 -.169393388205D-10  .000000000000D+00
     .180000000000D+03  .132156250000D+03  .425839166482D-08 -.137566087190D+01
     .697374343872D-05  .996605260298D-03  .602565705776D-05  .515357630539D+04
     .360000000000D+06 -.242143869400D-07  .117282249208D+01 -.106170773506D-06
     .965501128540D+00  .270687500000D+03 -.285500070546D+01 -.810569477758D-08
     .270725562521D-09  .100000000000D+01  .227300000000D+04  .000000000000D+00
     .240000000000D+01  .000000000000D+00 -.884756445885D-08  .180000000000D+03
     .352800000000D+06  .400000000000D+01
14 23  8  3  4  0  0.0  .142212957144D-03  .118234311230D-10  .000000000000D+00
     .970000000000D+02 -.228125000000D+02  .554273087699D-08  .185063061598D+01
    -.108033418655D-05  .344742916059D-02  .478327274323D-05  .515366893768D+04
     .360000000000D+06  .279396772385D-07 -.940876387347D+00  .167638063431D-06
     .947835241417D+00  .282031250000D+03 -.296109673110D+01 -.860750139413D-08
    -.341799951626D-09  .100000000000D+01  .227300000000D+04  .000000000000D+00
     .240000000000D+01  .000000000000D+00 -.791624188423D-08  .353000000000D+03
     .352800000000D+06  .400000000000D+01
29 23  8  3  4  0  0.0 -.606998335570D-03 -.795807864051D-12  .000000000000D+00
     .178000000000D+03  .425937500000D+02  .389980529969D-08 -.855185624382D+00
     .214576721191D-05  .262560613919D-02  .128354877234D-04  .515373439980D+04
     .360000000000D+06  .558793544769D-08  .152034453348D+00 -.260770320892D-07
     .975964179043D+00  .140843750000D+03  .250718220810D+01 -.760960268478D-08
    -.537522389965D-09  .100000000000D+01  .227300000000D+04  .000000000000D+00
     .240000000000D+01  .000000000000D+00 -.102445483208D-07  .178000000000D+03
     .352800000000D+06  .400000000000D+01
26 23  8  3  4  0  0.0  .234358943999D-03 -.136424205266D-11  .000000000000D+00
     .110000000000D+03 -.142500000000D+02  .598810657153D-08  .101710177483D+01
    -.467523932457D-06  .802182883490D-02  .437721610069D-05  .515371573448D+04
     .360000000000D+06  .391155481339D-07 -.104121573086D+01  .875443220139D-07
     .932946174690D+00  .278343750000D+03  .463955834697D+00 -.888108421852D-08
    -.351800368183D-09  .100000000000D+01  .227300000000D+04  .000000000000D+00
     .340000000000D+01  .000000000000D+00  .698491930962D-08  .110000000000D+03
     .352800000000D+06  .400000000000D+01
18 23  8  3  4  0  0.0 -.368847977370D-03 -.137561073643D-10  .000000000000D+00
     .158000000000D+03  .160531250000D+03  .407731269358D-08 -.282763573292D+01
     .826455652714D-05  .354313082062D-02  .623986124992D-05  .515366926575D+04
     .360000000000D+06  .409781932831D-07  .114137262508D+01 -.745058059692D-08
     .973956912072D+00  .267343750000D+03  .313370645282D+01 -.806783605776D-08
     .400016662300D-09  .100000000000D+01  .227300000000D+04  .000000000000D+00
     .240000000000D+01  .000000000000D+00 -.838190317154D-08  .670000000000D+03
     .352800000000D+06  .400000000000D+01
28 23  8  3  4  0  0.0  .791889615357D-04 -.261479726760D-11  .000000000000D+00
     .225000000000D+03  .322812500000D+02  .478591363823D-08  .117016079895D+01
     .179931521416D-05  .627464265563D-03  .103414058685D-04  .515371843338D+04
     .360000000000D+06 -.149011611938D-07 -.205309139909D+01  .353902578354D-07
     .961307185251D+00  .180031250000D+03  .163904633110D+01 -.801283376669D-08
     .841463621766D-09  .100000000000D+01  .227300000000D+04  .000000000000D+00
     .240000000000D+01  .000000000000D+00 -.977888703346D-08  .481000000000D+03
     .352800000000D+06  .400000000000D+01
23 23  8  3  4  0  0.0  .504897907376D-04  .443378667114D-11  .000000000000D+00
     .212000000000D+03 -.565312500000D+02  .448375819510D-08  .242414810437D+01
    -.284612178802D-05  .345035211649D-02  .301748514175D-06  .515366919327D+04
     .360000000000D+06 -.119209289551D-06  .214167881299D+01  .223517417908D-07
     .974691498830D+00  .377437500000D+03 -.310578239395D+01 -.850463996668D-08
    -.111790370803D-09  .100000000000D+01  .227300000000D+04  .000000000000D+00
     .240000000000D+01  .000000000000D+00 -.838190317154D-08  .980000000000D+03
     .352800000000D+06  .400000000000D+01
